CSS (TIANHE)            
1 48274U 21035A   24173.70483746  .00032880  00000+0  36376-3 0  9990
2 48274  41.4687  55.5718 0004756 259.0377 100.9927 15.62304888179801
